STARLINK-30595          
1 58111U 23161Q   26068.58512140 -.00000028  00000+0  11196-4 0  9999
2 58111  53.1608 166.1598 0001103  80.0909 280.0216 15.30182626134403
HAWK-11B                
1 62379U 24247C   26068.44730104  .00009093  00000+0  32842-3 0  9993
2 62379  45.0161 115.7610 0004690 333.0326  27.0314 15.28847070 67738
